SHIJIAN-6 02B (SJ-6 02B)
1 29506U 06046B   26117.29206900  .00002203  00000+0  17618-3 0  9995
2 29506  97.7143 146.6711 0010962 235.3250 124.6942 15.01219414 63105
FGRST (GLAST)           
1 33053U 08029A   26117.28171081  .00004002  00000+0  14840-3 0  9993
2 33053  25.5813 197.8669 0008733  86.5266 273.6271 15.23669823988064
SDO                     
1 36395U 10005A   26116.45405531 -.00000056  00000+0  00000+0 0  9995
2 36395  34.5467  87.1205 0001115  32.9808 156.0340  1.00272690 59547
CRYOSAT 2               
1 36508U 10013A   26117.28738365  .00000255  00000+0  62485-4 0  9996
2 36508  92.0290 264.9473 0002674  92.5715 267.5799 14.51905774850695
X-SAT                   
1 37389U 11015C   26117.25612451  .00000288  00000+0  13969-3 0  9999
2 37389  98.3485  96.7159 0014891 128.9319 231.3192 14.25191200780429
GCOM-W1 (SHIZUKU)       
1 38337U 12025A   26117.29728470  .00000537  00000+0  12926-3 0  9997
2 38337  98.1995  58.6332 0001305  94.5749  26.5851 14.57120964741627
NUSTAR                  
1 38358U 12031A   26117.33334491  .00024936  00000+0  15012-2 0  9995
2 38358   6.0275  55.4347 0006659  72.1902 285.0934 15.08299248  4625
NEOSSAT                 
1 39089U 13009D   26117.26840280  .00000161  00000+0  70523-4 0  9997
2 39089  98.4170 298.5142 0011794  43.2572 316.9538 14.35808183689432
BRITE-AUSTRIA           
1 39091U 13009F   26117.29230626  .00000200  00000+0  82511-4 0  9994
2 39091  98.3985 297.9904 0010874  37.9690 322.2261 14.36521023689749
IRIS                    
1 39197U 13033A   26117.11849453  .00001254  00000+0  14990-3 0  9998
2 39197  97.9369 316.5499 0025639 124.2778 236.0870 14.85776568692793
HISAKI (SPRINT-A)       
1 39253U 13049A   26117.31081272  .00000153  00000+0  11892-3 0  9992
2 39253  29.7187 118.6652 0136619 324.4246  34.7282 13.55538105624518
CASSIOPE                
1 39265U 13055A   26117.31750559  .00028054 -39185-6  32743-3 0  9995
2 39265  80.9131 128.3159 0302909 233.0457 124.2691 15.21816636659920
STSAT-3                 
1 39422U 13066G   26117.23541383  .00005202  00000+0  39633-3 0  9997
2 39422  97.6184  87.9839 0008916 187.4797 172.6296 15.02458636676550
SWARM B                 
1 39451U 13067A   26117.26074101  .00003979  00000+0  14344-3 0  9993
2 39451  87.7484 357.7803 0002395  92.3682 267.7842 15.28247820675467
SWARM A                 
1 39452U 13067B   26117.29402688  .00014262  00000+0  25488-3 0  9990
2 39452  87.3307  75.1266 0003703  89.1711 270.9974 15.49880744698360
SWARM C                 
1 39453U 13067C   26117.29396490  .00014402  00000+0  25738-3 0  9998
2 39453  87.3308  73.7077 0003720  89.4627 270.7060 15.49882145698321
BRITE-CA1 (TORONTO)     
1 40020U 14033L   26117.28223587  .00001113  00000+0  17417-3 0  9999
2 40020  97.9659 247.1737 0080047  80.1674 280.8560 14.72600195634725
