[{"OBJECT_NAME":"SHIJIAN-6 02B (SJ-6 02B)","OBJECT_ID":"2006-046B","EPOCH":"2026-04-27T07:00:34.761600","MEAN_MOTION":15.01219414,"ECCENTRICITY":0.00109623,"INCLINATION":97.7143,"RA_OF_ASC_NODE":146.6711,"ARG_OF_PERICENTER":235.325,"MEAN_ANOMALY":124.6942,"EPHEMERIS_TYPE":0,"CLASSIFICATION_TYPE":"U","NORAD_CAT_ID":29506,"ELEMENT_SET_NO":999,"REV_AT_EPOCH":6310,"BSTAR":0.0001761792,"MEAN_MOTION_DOT":2.203e-5,"MEAN_MOTION_DDOT":0},{"OBJECT_NAME":"FGRST (GLAST)","OBJECT_ID":"2008-029A","EPOCH":"2026-04-27T06:45:39.813984","MEAN_MOTION":15.23669823,"ECCENTRICITY":0.00087334,"INCLINATION":25.5813,"RA_OF_ASC_NODE":197.8669,"ARG_OF_PERICENTER":86.5266,"MEAN_ANOMALY":273.6271,"EPHEMERIS_TYPE":0,"CLASSIFICATION_TYPE":"U","NORAD_CAT_ID":33053,"ELEMENT_SET_NO":999,"REV_AT_EPOCH":98806,"BSTAR":0.00014839988,"MEAN_MOTION_DOT":4.002e-5,"MEAN_MOTION_DDOT":0},{"OBJECT_NAME":"SDO","OBJECT_ID":"2010-005A","EPOCH":"2026-04-26T10:53:50.378784","MEAN_MOTION":1.0027269,"ECCENTRICITY":0.0001115,"INCLINATION":34.5467,"RA_OF_ASC_NODE":87.1205,"ARG_OF_PERICENTER":32.9808,"MEAN_ANOMALY":156.034,"EPHEMERIS_TYPE":0,"CLASSIFICATION_TYPE":"U","NORAD_CAT_ID":36395,"ELEMENT_SET_NO":999,"REV_AT_EPOCH":5954,"BSTAR":0,"MEAN_MOTION_DOT":-5.6e-7,"MEAN_MOTION_DDOT":0},{"OBJECT_NAME":"CRYOSAT 2","OBJECT_ID":"2010-013A","EPOCH":"2026-04-27T06:53:49.947360","MEAN_MOTION":14.51905774,"ECCENTRICITY":0.00026746,"INCLINATION":92.029,"RA_OF_ASC_NODE":264.9473,"ARG_OF_PERICENTER":92.5715,"MEAN_ANOMALY":267.5799,"EPHEMERIS_TYPE":0,"CLASSIFICATION_TYPE":"U","NORAD_CAT_ID":36508,"ELEMENT_SET_NO":999,"REV_AT_EPOCH":85069,"BSTAR":6.2485235e-5,"MEAN_MOTION_DOT":2.55e-6,"MEAN_MOTION_DDOT":0},{"OBJECT_NAME":"X-SAT","OBJECT_ID":"2011-015C","EPOCH":"2026-04-27T06:08:49.157664","MEAN_MOTION":14.251912,"ECCENTRICITY":0.00148919,"INCLINATION":98.3485,"RA_OF_ASC_NODE":96.7159,"ARG_OF_PERICENTER":128.9319,"MEAN_ANOMALY":231.3192,"EPHEMERIS_TYPE":0,"CLASSIFICATION_TYPE":"U","NORAD_CAT_ID":37389,"ELEMENT_SET_NO":999,"REV_AT_EPOCH":78042,"BSTAR":0.00013968891,"MEAN_MOTION_DOT":2.88e-6,"MEAN_MOTION_DDOT":0},{"OBJECT_NAME":"GCOM-W1 (SHIZUKU)","OBJECT_ID":"2012-025A","EPOCH":"2026-04-27T07:08:05.398080","MEAN_MOTION":14.57120964,"ECCENTRICITY":0.00013059,"INCLINATION":98.1995,"RA_OF_ASC_NODE":58.6332,"ARG_OF_PERICENTER":94.5749,"MEAN_ANOMALY":26.5851,"EPHEMERIS_TYPE":0,"CLASSIFICATION_TYPE":"U","NORAD_CAT_ID":38337,"ELEMENT_SET_NO":999,"REV_AT_EPOCH":74162,"BSTAR":0.00012926399,"MEAN_MOTION_DOT":5.37e-6,"MEAN_MOTION_DDOT":0},{"OBJECT_NAME":"NUSTAR","OBJECT_ID":"2012-031A","EPOCH":"2026-04-27T08:00:01.000224","MEAN_MOTION":15.08299248,"ECCENTRICITY":0.00066596,"INCLINATION":6.0275,"RA_OF_ASC_NODE":55.4347,"ARG_OF_PERICENTER":72.1902,"MEAN_ANOMALY":285.0934,"EPHEMERIS_TYPE":0,"CLASSIFICATION_TYPE":"U","NORAD_CAT_ID":38358,"ELEMENT_SET_NO":999,"REV_AT_EPOCH":462,"BSTAR":0.0015012274,"MEAN_MOTION_DOT":0.00024936,"MEAN_MOTION_DDOT":0},{"OBJECT_NAME":"NEOSSAT","OBJECT_ID":"2013-009D","EPOCH":"2026-04-27T06:26:30.001920","MEAN_MOTION":14.35808183,"ECCENTRICITY":0.00117945,"INCLINATION":98.417,"RA_OF_ASC_NODE":298.5142,"ARG_OF_PERICENTER":43.2572,"MEAN_ANOMALY":316.9538,"EPHEMERIS_TYPE":0,"CLASSIFICATION_TYPE":"U","NORAD_CAT_ID":39089,"ELEMENT_SET_NO":999,"REV_AT_EPOCH":68943,"BSTAR":7.0523233e-5,"MEAN_MOTION_DOT":1.61e-6,"MEAN_MOTION_DDOT":0},{"OBJECT_NAME":"BRITE-AUSTRIA","OBJECT_ID":"2013-009F","EPOCH":"2026-04-27T07:00:55.260864","MEAN_MOTION":14.36521023,"ECCENTRICITY":0.00108749,"INCLINATION":98.3985,"RA_OF_ASC_NODE":297.9904,"ARG_OF_PERICENTER":37.969,"MEAN_ANOMALY":322.2261,"EPHEMERIS_TYPE":0,"CLASSIFICATION_TYPE":"U","NORAD_CAT_ID":39091,"ELEMENT_SET_NO":999,"REV_AT_EPOCH":68974,"BSTAR":8.2510779e-5,"MEAN_MOTION_DOT":2.0e-6,"MEAN_MOTION_DDOT":0},{"OBJECT_NAME":"IRIS","OBJECT_ID":"2013-033A","EPOCH":"2026-04-27T02:50:37.927392","MEAN_MOTION":14.85776568,"ECCENTRICITY":0.00256396,"INCLINATION":97.9369,"RA_OF_ASC_NODE":316.5499,"ARG_OF_PERICENTER":124.2778,"MEAN_ANOMALY":236.087,"EPHEMERIS_TYPE":0,"CLASSIFICATION_TYPE":"U","NORAD_CAT_ID":39197,"ELEMENT_SET_NO":999,"REV_AT_EPOCH":69279,"BSTAR":0.00014990266,"MEAN_MOTION_DOT":1.254e-5,"MEAN_MOTION_DDOT":0},{"OBJECT_NAME":"HISAKI (SPRINT-A)","OBJECT_ID":"2013-049A","EPOCH":"2026-04-27T07:27:34.219008","MEAN_MOTION":13.55538105,"ECCENTRICITY":0.01366194,"INCLINATION":29.7187,"RA_OF_ASC_NODE":118.6652,"ARG_OF_PERICENTER":324.4246,"MEAN_ANOMALY":34.7282,"EPHEMERIS_TYPE":0,"CLASSIFICATION_TYPE":"U","NORAD_CAT_ID":39253,"ELEMENT_SET_NO":999,"REV_AT_EPOCH":62451,"BSTAR":0.00011891885,"MEAN_MOTION_DOT":1.53e-6,"MEAN_MOTION_DDOT":0},{"OBJECT_NAME":"CASSIOPE","OBJECT_ID":"2013-055A","EPOCH":"2026-04-27T07:37:12.482976","MEAN_MOTION":15.21816636,"ECCENTRICITY":0.03029095,"INCLINATION":80.9131,"RA_OF_ASC_NODE":128.3159,"ARG_OF_PERICENTER":233.0457,"MEAN_ANOMALY":124.2691,"EPHEMERIS_TYPE":0,"CLASSIFICATION_TYPE":"U","NORAD_CAT_ID":39265,"ELEMENT_SET_NO":999,"REV_AT_EPOCH":65992,"BSTAR":0.00032743187,"MEAN_MOTION_DOT":0.00028054,"MEAN_MOTION_DDOT":-3.91849e-7},{"OBJECT_NAME":"STSAT-3","OBJECT_ID":"2013-066G","EPOCH":"2026-04-27T05:38:59.754912","MEAN_MOTION":15.02458636,"ECCENTRICITY":0.00089168,"INCLINATION":97.6184,"RA_OF_ASC_NODE":87.9839,"ARG_OF_PERICENTER":187.4797,"MEAN_ANOMALY":172.6296,"EPHEMERIS_TYPE":0,"CLASSIFICATION_TYPE":"U","NORAD_CAT_ID":39422,"ELEMENT_SET_NO":999,"REV_AT_EPOCH":67655,"BSTAR":0.0003963271,"MEAN_MOTION_DOT":5.202e-5,"MEAN_MOTION_DDOT":0},{"OBJECT_NAME":"SWARM B","OBJECT_ID":"2013-067A","EPOCH":"2026-04-27T06:15:28.023264","MEAN_MOTION":15.2824782,"ECCENTRICITY":0.00023954,"INCLINATION":87.7484,"RA_OF_ASC_NODE":357.7803,"ARG_OF_PERICENTER":92.3682,"MEAN_ANOMALY":267.7842,"EPHEMERIS_TYPE":0,"CLASSIFICATION_TYPE":"U","NORAD_CAT_ID":39451,"ELEMENT_SET_NO":999,"REV_AT_EPOCH":67546,"BSTAR":0.00014344165,"MEAN_MOTION_DOT":3.979e-5,"MEAN_MOTION_DDOT":0},{"OBJECT_NAME":"SWARM A","OBJECT_ID":"2013-067B","EPOCH":"2026-04-27T07:03:23.922432","MEAN_MOTION":15.49880744,"ECCENTRICITY":0.00037031,"INCLINATION":87.3307,"RA_OF_ASC_NODE":75.1266,"ARG_OF_PERICENTER":89.1711,"MEAN_ANOMALY":270.9974,"EPHEMERIS_TYPE":0,"CLASSIFICATION_TYPE":"U","NORAD_CAT_ID":39452,"ELEMENT_SET_NO":999,"REV_AT_EPOCH":69836,"BSTAR":0.00025488334,"MEAN_MOTION_DOT":0.00014262,"MEAN_MOTION_DDOT":0},{"OBJECT_NAME":"SWARM C","OBJECT_ID":"2013-067C","EPOCH":"2026-04-27T07:03:18.567360","MEAN_MOTION":15.49882145,"ECCENTRICITY":0.00037204,"INCLINATION":87.3308,"RA_OF_ASC_NODE":73.7077,"ARG_OF_PERICENTER":89.4627,"MEAN_ANOMALY":270.706,"EPHEMERIS_TYPE":0,"CLASSIFICATION_TYPE":"U","NORAD_CAT_ID":39453,"ELEMENT_SET_NO":999,"REV_AT_EPOCH":69832,"BSTAR":0.00025738203,"MEAN_MOTION_DOT":0.00014402,"MEAN_MOTION_DDOT":0},{"OBJECT_NAME":"BRITE-CA1 (TORONTO)","OBJECT_ID":"2014-033L","EPOCH":"2026-04-27T06:46:25.179168","MEAN_MOTION":14.72600195,"ECCENTRICITY":0.00800475,"INCLINATION":97.9659,"RA_OF_ASC_NODE":247.1737,"ARG_OF_PERICENTER":80.1674,"MEAN_ANOMALY":280.856,"EPHEMERIS_TYPE":0,"CLASSIFICATION_TYPE":"U","NORAD_CAT_ID":40020,"ELEMENT_SET_NO":999,"REV_AT_EPOCH":63472,"BSTAR":0.00017416559,"MEAN_MOTION_DOT":1.113e-5,"MEAN_MOTION_DDOT":0}]
